QIANFAN-17              
1 60395U 24140S   25347.25232311  .00000140  00000+0  19881-3 0  9998
2 60395  88.9772 299.3810 0013846 198.1039 161.9621 13.50977192 68207
QIANFAN-18              
1 60396U 24140T   25347.30580723  .00000138  00000+0  19429-3 0  9993
2 60396  88.9765 298.9090 0013719 179.2683 180.8491 13.50977095 67609
QIANFAN-19              
1 61552U 24185A   25347.29232725  .00000713  00000+0  36605-3 0  9995
2 61552  88.9822  77.8785 0005094 312.8899  47.1860 14.14297060 69744
QIANFAN-20              
1 61553U 24185B   25347.32701818  .00000865  00000+0  49305-3 0  9993
2 61553  88.9821  78.1990 0005234   2.0665 358.0539 14.08845420 69571
QIANFAN-21              
1 61554U 24185C   25347.31329706  .00001029  00000+0  45390-3 0  9998
2 61554  88.9737  76.9129 0010523  13.3958 346.7511 14.22609510 70058
QIANFAN-22              
1 61555U 24185D   25347.29501917  .00000293  00000+0  24253-3 0  9999
2 61555  88.9805  79.1859 0006269  12.7301 347.4027 13.86303413 69013
QIANFAN-23              
1 61556U 24185E   25347.26694451  .00000740  00000+0  36638-3 0  9990
2 61556  88.9814  77.6908 0006102 326.8608  33.2197 14.16293650 69829
QIANFAN-24              
1 61557U 24185F   25347.31548283  .00001025  00000+0  44207-3 0  9996
2 61557  88.9795  77.0893 0007456 301.7672  58.2793 14.23812150 70103
